#dP2024  6 11  0  0  0.00000000      96 __u+U IGS20 FIT  IAC
## 2318 172800.00000000   900.00000000 60472 0.0000000000000
+   54   G02G03G04G05G06G07G08G09G10G11G12G13G14G15G16G17G18
+        G19G20G21G22G23G24G25G26G27G28G29G30G31G32R01R02R03
+        R04R05R07R08R09R11R12R13R14R15R16R17R18R19R20R21R22
+        R24R25R26  0  0  0  0  0  0  0  0  0  0  0  0  0  0
+          0  0  0  0  0  0  0  0  0  0  0  0  0  0  0  0  0
++         6  6  7  7  6  6  8  7  6  6  6  6  5  6  5  6  7
++         6  6  6  4  6  6  5  7  7  6  4  7  5  6  6  5  6
++         6  6  6  6  6  6  6  6  7  6  6  5  6  7  7  7  8
++         7  7  7  0  0  0  0  0  0  0  0  0  0  0  0  0  0
++         0  0  0  0  0  0  0  0  0  0  0  0  0  0  0  0  0
%c M  cc GPS ccc cccc cccc cccc cccc ccccc ccccc ccccc ccccc
%c cc cc ccc ccc cccc cccc cccc cccc ccccc ccccc ccccc ccccc
%f  0.0000000  0.000000000  0.00000000000  0.000000000000000
%f  0.0000000  0.000000000  0.00000000000  0.000000000000000
%i    0    0    0    0      0      0      0      0         0
%i    0    0    0    0      0      0      0      0         0
/* INFORMATION & ANALYSIS CENTER (IAC)      ULTRA-RAPID DATA
/* S/V CLOCKS ARE ALIGNED TO GNSS TIME                      
/* G:C1WC2W R:C1PC2P E:C1XC5X C:C2IC6I J:C1CC2S             
/* PCV:IGS20_2317 OL/AL:FES2004  NONE     YN ORB:CoN CLK:CoN
*  2024 06 11 16  0  0.00000000
PG02  22789.475248  13891.931895   1793.201962   -419.628687
PG03  12883.875683   8949.104981  21296.015885    408.605471
PG04  21744.302725   3421.473960  14978.364311    380.982267
PG05  -6427.271438 -22393.619189 -12852.783938   -175.958115
PG06   5302.035397 -14237.716758  21831.374416    224.252238
PG07  20421.785185   1143.649650 -16668.513230    -96.017180
PG08  13493.543990  10206.584159 -20678.117604    224.738436
PG09  25214.809945  -7145.728208   4400.027731    230.805815
PG10 -10491.074125  21717.364363 -10539.926041    -40.699815
PG11  -7569.322588 -20592.246943  15033.560214   -683.217303
PG12 -11807.894442 -11914.030359  20324.082758   -513.218975
PG13  -4056.388860 -14534.269245 -22069.752333    657.191167
PG14  13196.035976 -18578.240229 -13428.048279    422.941911
PG15 -14622.015894  -9199.046840 -20719.466971    169.014229
PG16   1785.932034  24129.023995 -10750.558802   -267.126648
PG17  21061.017893 -13563.881360   9484.776387    696.010043
PG18 -19578.147355   -417.117716 -18024.144959   -623.557804
PG19  13838.795197 -15353.901893  16271.599725    494.966998
PG20  -2400.849072 -26405.216658  -2549.714229    373.950814
PG21  20949.055886  16780.753505  -3412.876846    116.105017
PG22   9995.457520 -24040.157953  -5562.627167    -25.939141
PG23 -14393.315163  11306.967603 -19148.591497    247.821593
PG24 -21781.460842 -15559.009916  -1422.824740   -476.984029
PG25 -15296.556720   -760.222194  21356.209187    497.191426
PG26  -4403.137659  25753.160088   3351.760238    138.654600
PG27   1375.551794  15674.907264 -21636.414861    -27.834263
PG28  -7519.444816  13319.282171  21703.643039   -284.270130
PG29 -25520.889710   2711.407315   7024.111398   -594.679749
PG30  13041.968681  -9408.052377 -21017.013616   -375.930658
PG31   2899.469184  19041.007433  17901.812852   -227.447652
PG32 -18546.268346  15570.746264  10890.220961   -616.525650
PR01   1805.208478  12805.007887  21993.047429     88.083520
PR02  14928.692414   -472.953468  20742.321930    -23.237475
PR03  20168.495402 -13693.083956   7651.717031    101.874010
PR04  14481.890008 -18833.499897  -9269.426582    240.612847
PR05   1010.732144 -14079.426993 -21238.128398    132.928909
PR07 -20082.585050  14130.498205  -6776.870962     84.355369
PR08 -14044.880801  19005.172321   9626.837271     -4.855192
PR09 -12641.056959 -12105.910707  18541.644677    191.646780
PR11  -2646.746999  20276.389870  15276.229764     21.741095
PR12   7220.248051  24230.214260  -3316.157487     41.193044
PR13  11989.322684  14822.956552 -16955.307608    -48.257347
PR14   9903.440591  -6030.392643 -22701.522395     26.562684
PR15   1990.609852 -21262.671423 -13918.680493     78.915904
PR16  -7238.399703 -24234.448375   3167.512584     26.393690
PR17  20570.153090   -661.319185  15041.721305     94.923857
PR18   6660.355665  -8760.704522  23024.050979    146.509183
PR19  -8741.373106 -12838.175911  20229.673598   -279.957203
PR20 -23334.820595  -9896.283940   2687.035105   -114.317194
PR21 -20762.702901    260.231409 -14842.205232   -108.401541
PR22  -5756.377738   9476.816695 -22949.661002    103.918369
PR24  23886.740932   8671.892139  -2088.476232    -59.437569
PR25 -20528.236044    183.047238 -15154.284821    -46.503831
PR26 -14790.317301  19067.117837   8330.688844     -6.532180
*  2024 06 11 16 15  0.00000000
PG02  22666.888834  14068.619836  -1057.572143   -419.622321
PG03  12526.396020  11331.349312  20372.363621    408.621618
PG04  20105.509236   4221.526994  16926.523084    380.989591
PG05  -6140.116696 -23683.047224 -10408.340726   -175.959195
PG06   7292.886715 -12725.877229  22198.171172    224.233343
PG07  21807.112842   2414.655378 -14768.618480    -96.007354
PG08  11359.663339  11257.664027 -21368.741748    224.755022
PG09  24708.892377  -6641.464659   7145.897628    230.818907
PG10 -10504.507916  20321.380176 -13005.659731    -40.706957
PG11  -6062.827840 -19550.345802  16979.357537   -683.224704
PG12 -11267.534540 -14166.452598  19173.206690   -513.221746
PG13  -1664.839004 -15154.170045 -21940.684141    657.193464
PG14  13184.400371 -16888.672607 -15522.269790    422.950181
PG15 -12691.055891 -10471.558969 -21376.621147    169.017898
PG16   1322.039235  25106.247159  -8152.190310   -267.117371
PG17  21953.491249 -13672.438609   6826.560867    696.005350
PG18 -21038.988654  -1717.945379 -16229.845694   -623.562337
PG19  15603.311273 -15690.990655  14212.337658    494.971912
PG20  -2146.140422 -26555.477883    280.306375    373.950594
PG21  20362.607128  16625.274919  -6142.504677    116.102850
PG22  10041.967398 -23176.906891  -8254.788429    -25.943273
PG23 -14277.759033   9038.602193 -20414.754635    247.829836
PG24 -21395.031760 -15668.751380  -4175.941477   -476.986433
PG25 -15041.983828  -3264.439754  21324.831884    497.191921
PG26  -4740.713016  25173.153251   6097.480602    138.649049
PG27   -838.755816  16558.106553 -20949.461577    -27.835464
PG28  -9556.049131  11891.244538  21731.761604   -284.285302
PG29 -24678.182553   2213.457838   9676.638749   -594.678211
PG30  14924.718825  -7909.277671 -20401.046428   -375.925145
PG31   1083.424694  17815.646493  19327.901368   -227.447416
PG32 -19627.335540  15786.742483   8314.285638   -616.524672
PR01     14.886193  14746.976438  20820.912330     88.084182
PR02  12990.686568   1298.016049  21972.425014    -23.237438
PR03  19263.104536 -13018.749474  10604.889859    101.874104
PR04  15056.482282 -19622.447054  -6229.988082    240.614514
PR05   2781.967342 -15892.484526 -19751.113518    132.929064
PR07 -19243.574583  13515.751699  -9783.718947     84.355249
PR08 -14648.373439  19809.979753   6611.585125     -4.855811
PR09 -13303.808759 -14161.574516  16500.407631    191.648767
PR11  -3077.555765  18299.443180  17526.049634     21.739644
PR12   7402.800489  24404.906471   -119.444252     41.193753
PR13  12601.430772  16673.707288 -14632.255237    -48.257855
PR14  10641.420216  -3310.286850 -22927.840362     26.562467
PR15   2376.630719 -19430.093908 -16325.550244     78.915497
PR16  -7433.699744 -24379.795581    -42.573993     26.393751
PR17  22245.463309   -343.008653  12439.600002     94.926859
PR18   9358.004296  -8006.932279  22353.872552    146.511213
PR19  -6313.097632 -11935.644252  21635.875478   -279.958778
PR20 -22899.858306  -9525.224938   5879.864935   -114.317048
PR21 -22411.472768    -49.920029 -12214.972626   -108.404370
PR22  -8433.200329   8631.839152 -22449.678371    103.914885
PR24  23489.784392   8403.250445  -5263.246297    -59.438920
PR25 -22192.126105   -235.717293 -12593.928669    -46.531935
PR26 -15270.860367  19768.400206   5255.186931     -6.531359
EOF
